{
  "type": "FeatureCollection",
  "features": [
    {
      "type": "Feature",
      "properties": {
        "norad_id": 30153,
        "name": "FENGYUN 1C DEB",
        "group": "fengyun-1c-debris",
        "lat": 66.5636014870369,
        "lon": -168.9517532101674,
        "alt_km": 1044.9624677331067,
        "timestamp": "2025-12-20T14:38:02.244176+00:00",
        "meta_object_name": "FENGYUN 1C DEB",
        "meta_object_id": "1999-025TJ",
        "meta_epoch": "2025-12-19T22:40:53.266944",
        "meta_mean_motion": 13.78789166,
        "meta_eccentricity": 0.0200624,
        "meta_inclination": 100.4671,
        "meta_ra_of_asc_node": 345.0732,
        "meta_arg_of_pericenter": 347.3507,
        "meta_mean_anomaly": 64.2236,
        "meta_ephemeris_type": 0,
        "meta_classification_type": "U",
        "meta_norad_cat_id": 30153,
        "meta_element_set_no": 999,
        "meta_rev_at_epoch": 94874,
        "meta_bstar": 0.00091016,
        "meta_mean_motion_dot": 1.022e-05,
        "meta_mean_motion_ddot": 0,
        "tle_line1": "1 30153U 99025TJ  25353.94506096  .00001022  00000+0  91016-3 0  9998",
        "tle_line2": "2 30153 100.4671 345.0732 0200624 347.3507  64.2236 13.78789166948741"
      },
      "geometry": {
        "type": "Point",
        "coordinates": [
          -168.9517532101674,
          66.5636014870369
        ]
      }
    },
    {
      "type": "Feature",
      "properties": {
        "norad_id": 30154,
        "name": "FENGYUN 1C DEB",
        "group": "fengyun-1c-debris",
        "lat": -22.54291974573554,
        "lon": -147.90290373828012,
        "alt_km": 826.4161341873951,
        "timestamp": "2025-12-20T14:38:02.244186+00:00",
        "meta_object_name": "FENGYUN 1C DEB",
        "meta_object_id": "1999-025TK",
        "meta_epoch": "2025-12-19T01:25:35.721408",
        "meta_mean_motion": 13.86012239,
        "meta_eccentricity": 0.01830001,
        "meta_inclination": 98.449,
        "meta_ra_of_asc_node": 34.2344,
        "meta_arg_of_pericenter": 181.5726,
        "meta_mean_anomaly": 208.9926,
        "meta_ephemeris_type": 0,
        "meta_classification_type": "U",
        "meta_norad_cat_id": 30154,
        "meta_element_set_no": 999,
        "meta_rev_at_epoch": 95072,
        "meta_bstar": 0.0012878309,
        "meta_mean_motion_dot": 1.652e-05,
        "meta_mean_motion_ddot": 0,
        "tle_line1": "1 30154U 99025TK  25353.05944122  .00001652  00000+0  12878-2 0  9994",
        "tle_line2": "2 30154  98.4490  34.2344 0183000 181.5726 208.9926 13.86012239950725"
      },
      "geometry": {
        "type": "Point",
        "coordinates": [
          -147.90290373828012,
          -22.54291974573554
        ]
      }
    },
    {
      "type": "Feature",
      "properties": {
        "norad_id": 30155,
        "name": "FENGYUN 1C DEB",
        "group": "fengyun-1c-debris",
        "lat": 75.42772698000427,
        "lon": 26.881958372029533,
        "alt_km": 1052.8048580116483,
        "timestamp": "2025-12-20T14:38:02.244196+00:00",
        "meta_object_name": "FENGYUN 1C DEB",
        "meta_object_id": "1999-025TL",
        "meta_epoch": "2025-12-20T02:01:11.381664",
        "meta_mean_motion": 13.73830418,
        "meta_eccentricity": 0.02422307,
        "meta_inclination": 99.7516,
        "meta_ra_of_asc_node": 67.7598,
        "meta_arg_of_pericenter": 324.6747,
        "meta_mean_anomaly": 33.8555,
        "meta_ephemeris_type": 0,
        "meta_classification_type": "U",
        "meta_norad_cat_id": 30155,
        "meta_element_set_no": 999,
        "meta_rev_at_epoch": 93965,
        "meta_bstar": 0.0015533777,
        "meta_mean_motion_dot": 1.749e-05,
        "meta_mean_motion_ddot": 0,
        "tle_line1": "1 30155U 99025TL  25354.08415951  .00001749  00000+0  15534-2 0  9991",
        "tle_line2": "2 30155  99.7516  67.7598 0242230 324.6747  33.8555 13.73830418939650"
      },
      "geometry": {
        "type": "Point",
        "coordinates": [
          26.881958372029533,
          75.42772698000427
        ]
      }
    },
    {
      "type": "Feature",
      "properties": {
        "norad_id": 30156,
        "name": "FENGYUN 1C DEB",
        "group": "fengyun-1c-debris",
        "lat": 13.716715514234457,
        "lon": 143.37115866065875,
        "alt_km": 923.0857154631813,
        "timestamp": "2025-12-20T14:38:02.244206+00:00",
        "meta_object_name": "FENGYUN 1C DEB",
        "meta_object_id": "1999-025TM",
        "meta_epoch": "2025-12-19T20:34:07.863744",
        "meta_mean_motion": 13.80832231,
        "meta_eccentricity": 0.0198833,
        "meta_inclination": 98.9193,
        "meta_ra_of_asc_node": 320.4634,
        "meta_arg_of_pericenter": 243.7223,
        "meta_mean_anomaly": 144.7653,
        "meta_ephemeris_type": 0,
        "meta_classification_type": "U",
        "meta_norad_cat_id": 30156,
        "meta_element_set_no": 999,
        "meta_rev_at_epoch": 94789,
        "meta_bstar": 0.00084891,
        "meta_mean_motion_dot": 9.96e-06,
        "meta_mean_motion_ddot": 0,
        "tle_line1": "1 30156U 99025TM  25353.85703546  .00000996  00000+0  84891-3 0  9992",
        "tle_line2": "2 30156  98.9193 320.4634 0198833 243.7223 144.7653 13.80832231947891"
      },
      "geometry": {
        "type": "Point",
        "coordinates": [
          143.37115866065875,
          13.716715514234457
        ]
      }
    },
    {
      "type": "Feature",
      "properties": {
        "norad_id": 30157,
        "name": "FENGYUN 1C DEB",
        "group": "fengyun-1c-debris",
        "lat": 72.45734558618366,
        "lon": -59.115570217569775,
        "alt_km": 722.9831396874242,
        "timestamp": "2025-12-20T14:38:02.244216+00:00",
        "meta_object_name": "FENGYUN 1C DEB",
        "meta_object_id": "1999-025TN",
        "meta_epoch": "2025-12-18T05:54:22.891392",
        "meta_mean_motion": 14.45176122,
        "meta_eccentricity": 0.00371397,
        "meta_inclination": 98.7167,
        "meta_ra_of_asc_node": 89.4254,
        "meta_arg_of_pericenter": 177.0451,
        "meta_mean_anomaly": 238.3523,
        "meta_ephemeris_type": 0,
        "meta_classification_type": "U",
        "meta_norad_cat_id": 30157,
        "meta_element_set_no": 999,
        "meta_rev_at_epoch": 98152,
        "meta_bstar": 0.0017628744,
        "meta_mean_motion_dot": 6.184e-05,
        "meta_mean_motion_ddot": 0,
        "tle_line1": "1 30157U 99025TN  25352.24609828  .00006184  00000+0  17629-2 0  9992",
        "tle_line2": "2 30157  98.7167  89.4254 0037139 177.0451 238.3523 14.45176122981520"
      },
      "geometry": {
        "type": "Point",
        "coordinates": [
          -59.115570217569775,
          72.45734558618366
        ]
      }
    },
    {
      "type": "Feature",
      "properties": {
        "norad_id": 30160,
        "name": "FENGYUN 1C DEB",
        "group": "fengyun-1c-debris",
        "lat": 33.286133720473856,
        "lon": 128.15800018298611,
        "alt_km": 891.3588828254951,
        "timestamp": "2025-12-20T14:38:02.244226+00:00",
        "meta_object_name": "FENGYUN 1C DEB",
        "meta_object_id": "1999-025TR",
        "meta_epoch": "2025-12-20T03:17:44.118816",
        "meta_mean_motion": 13.42900665,
        "meta_eccentricity": 0.034319,
        "meta_inclination": 98.887,
        "meta_ra_of_asc_node": 301.8449,
        "meta_arg_of_pericenter": 109.1478,
        "meta_mean_anomaly": 271.878,
        "meta_ephemeris_type": 0,
        "meta_classification_type": "U",
        "meta_norad_cat_id": 30160,
        "meta_element_set_no": 999,
        "meta_rev_at_epoch": 92513,
        "meta_bstar": 0.00086459163,
        "meta_mean_motion_dot": 6.64e-06,
        "meta_mean_motion_ddot": 0,
        "tle_line1": "1 30160U 99025TR  25354.13731619  .00000664  00000+0  86459-3 0  9995",
        "tle_line2": "2 30160  98.8870 301.8449 0343190 109.1478 271.8780 13.42900665925130"
      },
      "geometry": {
        "type": "Point",
        "coordinates": [
          128.15800018298611,
          33.286133720473856
        ]
      }
    },
    {
      "type": "Feature",
      "properties": {
        "norad_id": 30161,
        "name": "FENGYUN 1C DEB",
        "group": "fengyun-1c-debris",
        "lat": -71.40991870503419,
        "lon": 128.95925056452094,
        "alt_km": 844.5668064566662,
        "timestamp": "2025-12-20T14:38:02.244236+00:00",
        "meta_object_name": "FENGYUN 1C DEB",
        "meta_object_id": "1999-025TS",
        "meta_epoch": "2025-12-19T09:45:54.413856",
        "meta_mean_motion": 13.49738743,
        "meta_eccentricity": 0.0327899,
        "meta_inclination": 100.5057,
        "meta_ra_of_asc_node": 341.1722,
        "meta_arg_of_pericenter": 241.7778,
        "meta_mean_anomaly": 289.8674,
        "meta_ephemeris_type": 0,
        "meta_classification_type": "U",
        "meta_norad_cat_id": 30161,
        "meta_element_set_no": 999,
        "meta_rev_at_epoch": 92649,
        "meta_bstar": 0.0012754,
        "meta_mean_motion_dot": 1.076e-05,
        "meta_mean_motion_ddot": 0,
        "tle_line1": "1 30161U 99025TS  25353.40687979  .00001076  00000+0  12754-2 0  9998",
        "tle_line2": "2 30161 100.5057 341.1722 0327899 241.7778 289.8674 13.49738743926498"
      },
      "geometry": {
        "type": "Point",
        "coordinates": [
          128.95925056452094,
          -71.40991870503419
        ]
      }
    }
  ]
}